API VERSION: 1.2
API SOURCE: NASA/JPL Horizons API



*******************************************************************************
Ephemeris / API_USER Wed Apr 15 10:20:56 2026 Pasadena, USA      / Horizons
*******************************************************************************
Target body name: Mars (499)                      {source: mar099}
Center body name: Sun (10)                        {source: DE441}
Center-site name: BODY CENTER
*******************************************************************************
Start time      : A.D. 2100-Jan-01 00:00:00.0000 TDB
Stop  time      : A.D. 2199-Dec-18 00:00:00.0000 TDB
Step-size       : 43200 minutes
*******************************************************************************
Center geodetic : 0.0, 0.0, 0.0                   {E-lon(deg),Lat(deg),Alt(km)}
Center cylindric: 0.0, 0.0, 0.0                   {E-lon(deg),Dxy(km),Dz(km)}
Center radii    : 695700.0, 695700.0, 695700.0 km {Equator_a, b, pole_c}
Output units    : AU-D
Calendar mode   : Mixed Julian/Gregorian
Output type     : GEOMETRIC cartesian states
Output format   : 3 (position, velocity, LT, range, range-rate)
Reference frame : Ecliptic of J2000.0
*******************************************************************************
            JDTDB,            Calendar Date (TDB),                      X,                      Y,                      Z,                     VX,                     VY,                     VZ,                     LT,                     RG,                     RR,
**************************************************************************************************************************************************************************************************************************************************************************
$$SOE
2500669.500000000, A.D. 2134-Jul-02 00:00:00.0000, -1.650280095195706E+00,  1.516695084785218E-01,  4.326073376957538E-02, -7.693447697342573E-04, -1.273340925657290E-02, -2.486537331561301E-04,  9.574651996593275E-03,  1.657799602933824E+00, -4.055933570775639E-04,
2500699.500000000, A.D. 2134-Aug-01 00:00:00.0000, -1.624724498648751E+00, -2.310195557466380E-01,  3.460551511545320E-02,  2.480768307967595E-03, -1.265262940769377E-02, -3.258910193011842E-04,  9.480117549386387E-03,  1.641431470797125E+00, -6.816232460104934E-04,
2500729.500000000, A.D. 2134-Aug-31 00:00:00.0000, -1.501721126539992E+00, -5.997019109648659E-01,  2.387773841754690E-02,  5.701312731284365E-03, -1.179364851783731E-02, -3.860703545260842E-04,  9.340245082504379E-03,  1.617213303897600E+00, -9.264867581235163E-04,
2500759.500000000, A.D. 2134-Sep-30 00:00:00.0000, -1.284627140077176E+00, -9.305771500274561E-01,  1.165867977545050E-02,  8.722568777921198E-03, -1.012945450816001E-02, -4.245025269038104E-04,  9.161757441561919E-03,  1.586309126869727E+00, -1.124597207806782E-03,
2500789.500000000, A.D. 2134-Oct-30 00:00:00.0000, -9.823817241036653E-01, -1.199416352527918E+00, -1.325843311715164E-03,  1.134110946855649E-02, -7.661693081946159E-03, -4.362828987776638E-04,  8.954242619752259E-03,  1.550379049273032E+00, -1.258505305901946E-03,
2500819.500000000, A.D. 2134-Nov-29 00:00:00.0000, -6.105689607031930E-01, -1.382758394465749E+00, -1.420474343822060E-02,  1.331794830777711E-02, -4.444724058969719E-03, -4.167467753559667E-04,  8.730431016911922E-03,  1.511627271511010E+00, -1.309599667616878E-03,
2500849.500000000, A.D. 2134-Dec-29 00:00:00.0000, -1.923454331471298E-01, -1.459962402364413E+00, -2.598221673947492E-02,  1.439105392362884E-02, -6.180139645472189E-04, -3.624593810044516E-04,  8.506226960999227E-03,  1.472807542605931E+00, -1.260421878698348E-03,
2500879.500000000, A.D. 2135-Jan-28 00:00:00.0000,  2.413482067777863E-01, -1.416269488073149E+00, -3.559697202776581E-02,  1.431213821115067E-02,  3.561081414512408E-03, -2.727969987928079E-04,  8.300156045890241E-03,  1.437127469704541E+00, -1.099089221842439E-03,
2500909.500000000, A.D. 2135-Feb-27 00:00:00.0000,  6.531287940923403E-01, -1.246632495722494E+00, -4.203518801999703E-02,  1.291342170875653E-02,  7.703064861208483E-03, -1.518619826202415E-04,  8.131873938270442E-03,  1.407990325995064E+00, -8.255595624071950E-04,
2500939.500000000, A.D. 2135-Mar-29 00:00:00.0000,  1.002857532140056E+00, -9.593487880444417E-01, -4.449631799843724E-02,  1.019310184584825E-02,  1.131839745926881E-02, -9.890935594590865E-06,  8.019558849645425E-03,  1.388543571231310E+00, -4.577615179882525E-04,
2500969.500000000, A.D. 2135-Apr-28 00:00:00.0000,  1.253706941499710E+00, -5.777756785642242E-01, -4.257650624224912E-02,  6.379755202230893E-03,  1.391356271925432E-02,  1.372011441015373E-04,  7.976529432130326E-03,  1.381093258541472E+00, -3.360837824565590E-05,
2500999.500000000, A.D. 2135-May-28 00:00:00.0000,  1.379162946439176E+00, -1.384298029137350E-01, -3.639862288424218E-02,  1.922535256340372E-03,  1.512771302076160E-02,  2.709334231417364E-04,  8.008164072517381E-03,  1.386570626731070E+00,  3.948601266443295E-04,
2501029.500000000, A.D. 2135-Jun-27 00:00:00.0000,  1.368295499159835E+00,  3.147926240750864E-01, -2.661887850046178E-02, -2.612308561043104E-03,  1.484143154153352E-02,  3.750477682807267E-04,  8.110513186454990E-03,  1.404291826468332E+00,  7.744684986578170E-04,
2501059.500000000, A.D. 2135-Jul-27 00:00:00.0000,  1.227032073196963E+00,  7.383772446777023E-01, -1.429486273387803E-02, -6.691754026077062E-03,  1.319345284837363E-02,  4.395122578564354E-04,  8.271326682092994E-03,  1.432135820099635E+00,  1.064470113263330E-03,
2501089.500000000, A.D. 2135-Aug-26 00:00:00.0000,  9.752388713781014E-01,  1.095962006828072E+00, -6.724448906725577E-04, -9.932875057655858E-03,  1.050385282709613E-02,  4.617504750132313E-04,  8.472951189527513E-03,  1.467046021377509E+00,  1.243715080991176E-03,
2501119.500000000, A.D. 2135-Sep-25 00:00:00.0000,  6.414482840196397E-01,  1.362084141271315E+00,  1.302090184274506E-02, -1.214052805698750E-02,  7.160876944831847E-03,  4.451733540386765E-04,  8.695749467378774E-03,  1.505622347356519E+00,  1.309752473395581E-03,
2501149.500000000, A.D. 2135-Oct-25 00:00:00.0000,  2.575356395451412E-01,  1.522763435125955E+00,  2.571754002454595E-02, -1.327877273539868E-02,  3.530366612746234E-03,  3.965878678955333E-04,  8.920875555042677E-03,  1.544601721110474E+00,  1.273050003237158E-03,
2501179.500000000, A.D. 2135-Nov-24 00:00:00.0000, -1.452459519252302E-01,  1.574036324372047E+00,  3.657529294562237E-02, -1.341547904622150E-02, -8.974026201345542E-05,  3.238999959034705E-04,  9.131941023876787E-03,  1.581146574181973E+00,  1.150517200222242E-03,
2501209.500000000, A.D. 2135-Dec-24 00:00:00.0000, -5.385755717811405E-01,  1.519721748862468E+00,  4.498659229133915E-02, -1.267095020958256E-02, -3.477750127071563E-03,  2.346840661071695E-04,  9.315683041999588E-03,  1.612960518416669E+00,  9.607236926275180E-04,
2501239.500000000, A.D. 2136-Jan-23 00:00:00.0000, -8.980705759896740E-01,  1.369278665541393E+00,  5.055786369978522E-02, -1.118311707365695E-02, -6.476584739627384E-03,  1.355868819579191E-04,  9.462003534406052E-03,  1.638295126327100E+00,  7.213804437686322E-04,
2501269.500000000, A.D. 2136-Feb-22 00:00:00.0000, -1.203504287394823E+00,  1.136129951127855E+00,  5.307975259179096E-02, -9.089178659105048E-03, -8.976081987332352E-03,  3.225705971960489E-05,  9.563726993998880E-03,  1.655907997372653E+00,  4.484440521275376E-04,
2501299.500000000, A.D. 2136-Mar-23 00:00:00.0000, -1.438660904374405E+00,  8.365113290982165E-01,  5.249944385933007E-02, -6.518967490064762E-03, -1.089638892582797E-02, -7.047508722932090E-05,  9.616285878900836E-03,  1.665008286192770E+00,  1.561139253170673E-04,
2501329.500000000, A.D. 2136-Apr-22 00:00:00.0000, -1.591114186651928E+00,  4.887647796799023E-01,  4.890034091746930E-02, -3.595904505502811E-03, -1.217517623287465E-02, -1.683048961057426E-04,  9.617454806963154E-03,  1.665210679812742E+00, -1.426443069042870E-04,
2501359.500000000, A.D. 2136-May-22 00:00:00.0000, -1.652109246230982E+00,  1.129476650684978E-01,  4.249102922814086E-02, -4.424782867373912E-04, -1.275944227449716E-02, -2.571447425235951E-04,  9.567207783110718E-03,  1.656510677324839E+00, -4.352842987045141E-04,
2501389.500000000, A.D. 2136-Jun-21 00:00:00.0000, -1.616649240086759E+00, -2.693817241646487E-01,  3.360282851416363E-02,  2.811761002421598E-03, -1.260192114232952E-02, -3.328587641307501E-04,  9.467711967207030E-03,  1.639283510827571E+00, -7.089005843453222E-04,
2501419.500000000, A.D. 2136-Jul-21 00:00:00.0000, -1.483849034189694E+00, -6.353442839116621E-01,  2.269457149094856E-02,  6.020556510715978E-03, -1.166254287106805E-02, -3.910542054594216E-04,  9.323456574008033E-03,  1.614306463760852E+00, -9.494738804144998E-04,
2501449.500000000, A.D. 2136-Aug-20 00:00:00.0000, -1.257587842813524E+00, -9.610556039683037E-01,  1.036195027316280E-02,  9.010982137035474E-03, -9.916282324315087E-03, -4.270045787928606E-04,  9.141502431492705E-03,  1.582802080591480E+00, -1.141284505114880E-03,
2501479.500000000, A.D. 2136-Sep-19 00:00:00.0000, -9.474340940062277E-01, -1.222291913216318E+00, -2.654071360771471E-03,  1.157578708415814E-02, -7.368913942473776E-03, -4.358005981175009E-04,  8.931789948135696E-03,  1.546491489693428E+00, -1.266851317699524E-03,
2501509.500000000, A.D. 2136-Oct-19 00:00:00.0000, -5.697115436744401E-01, -1.395765328473825E+00, -1.546820952565803E-02,  1.347271419734313E-02, -4.081993207589398E-03, -4.128523021831780E-04,  8.707389032177056E-03,  1.507637675528006E+00, -1.307787778671769E-03,
2501539.500000000, A.D. 2136-Nov-18 00:00:00.0000, -1.483823721253596E-01, -1.461277753879884E+00, -2.707452927587065E-02,  1.443904172902227E-02, -2.057930921711233E-04, -3.549344170104219E-04,  8.484476316847536E-03,  1.469041535313858E+00, -1.247186460811513E-03,
